*******************************************************************************
Ephemeris / WWW_USER Tue Mar 11 05:34:09 2025 Pasadena, USA      / Horizons    
*******************************************************************************
Target body name: (2018 YU2)                      {source: JPL#5}
Center body name: Earth (399)                     {source: DE441}
Center-site name: Gemini South Obs., Cerro Pachon
*******************************************************************************
Start time      : A.D. 2018-Sep-27 22:50:00.0000 UT      
Stop  time      : A.D. 2018-Sep-28 10:16:00.0000 UT      
Step-size       : 1 minutes
*******************************************************************************
Target pole/equ : undefined
Target radii    : undefined                                                    
Center geodetic : 289.2634, -30.2406227, 2.71233  {E-lon(deg),Lat(deg),Alt(km)}
Center cylindric: 289.2634,5517.21435,-3194.81213 {E-lon(deg),Dxy(km),Dz(km)}
Center pole/equ : ITRF93                          {East-longitude positive}
Center radii    : 6378.137, 6378.137, 6356.752 km {Equator_a, b, pole_c}       
Target primary  : Sun
Vis. interferer : MOON (R_eq= 1737.400) km        {source: DE441}
Rel. light bend : Sun                             {source: DE441}
Rel. lght bnd GM: 1.3271E+11 km^3/s^2                                          
Small-body perts: Yes                             {source: SB441-N16}
Atmos refraction: NO (AIRLESS)
RA format       : HMS
Time format     : CAL 
Calendar mode   : Mixed Julian/Gregorian
RTS-only print  : NO       
EOP file        : eop.250310.p250606                                           
EOP coverage    : DATA-BASED 1962-JAN-20 TO 2025-MAR-10. PREDICTS-> 2025-JUN-05
Units conversion: 1 au= 149597870.700 km, c= 299792.458 km/s, 1 day= 86400.0 s 
Table cut-offs 1: Elevation (-90.0deg=NO ),Airmass (>38.000=NO), Daylight (YES)
Table cut-offs 2: Solar elongation (  0.0,180.0=NO ),Local Hour Angle( 0.0=NO )
Table cut-offs 3: RA/DEC angular rate (     0.0=NO )                           
*******************************************************************************
Initial IAU76/J2000 heliocentric ecliptic osculating elements (au, days, deg.):
  EPOCH=  2458477.5 ! 2018-Dec-25.00 (TDB)         Residual RMS= .22887        
   EC= .1533598773405833   QR= .920984914841031    TP= 2458549.1486254167      
   OM= 279.4515303175068   W=  253.4059234937716   IN= 2.850769624588425       
  Equivalent ICRF heliocentric cartesian coordinates (au, au/d):
   X=-6.842297687009524E-02  Y= 9.429126817220428E-01  Z= 4.143187104036840E-01
  VX=-1.695115058702848E-02 VY=-2.997207899955317E-03 VZ=-2.239432528215744E-03
Asteroid physical parameters (km, seconds, rotational period in hours):        
   GM= n.a.                RAD= n.a.               ROTPER= n.a.                
   H= 26.5                 G= .150                 B-V= n.a.                   
                           ALBEDO= n.a.            STYP= n.a.                  
*******************************************************************************
 Date__(UT)__HR:MN     R.A._________(ICRF)_________DEC
******************************************************
$$SOE
 2018-Sep-28 00:53     04 48 55.974537 +30 12 22.59826
 2018-Sep-28 00:54     04 48 56.079019 +30 12 22.96347
 2018-Sep-28 00:55     04 48 56.183480 +30 12 23.32878
 2018-Sep-28 00:56     04 48 56.287920 +30 12 23.69417
 2018-Sep-28 00:57     04 48 56.392337 +30 12 24.05964
 2018-Sep-28 00:58     04 48 56.496733 +30 12 24.42521
 2018-Sep-28 00:59     04 48 56.601108 +30 12 24.79085
 2018-Sep-28 01:00     04 48 56.705460 +30 12 25.15659
 2018-Sep-28 01:01     04 48 56.809791 +30 12 25.52240
 2018-Sep-28 01:02     04 48 56.914100 +30 12 25.88830
 2018-Sep-28 01:03     04 48 57.018386 +30 12 26.25428
 2018-Sep-28 01:04     04 48 57.122651 +30 12 26.62034
 2018-Sep-28 01:05     04 48 57.226894 +30 12 26.98649
 2018-Sep-28 01:06     04 48 57.331114 +30 12 27.35271
 2018-Sep-28 01:07     04 48 57.435312 +30 12 27.71902
 2018-Sep-28 01:08     04 48 57.539488 +30 12 28.08540
 2018-Sep-28 01:09  m  04 48 57.643642 +30 12 28.45187
 2018-Sep-28 01:10  m  04 48 57.747773 +30 12 28.81841
 2018-Sep-28 01:11  m  04 48 57.851882 +30 12 29.18503
 2018-Sep-28 01:12  m  04 48 57.955968 +30 12 29.55172
 2018-Sep-28 01:13  m  04 48 58.060032 +30 12 29.91850
 2018-Sep-28 01:14  m  04 48 58.164073 +30 12 30.28535
 2018-Sep-28 01:15  m  04 48 58.268092 +30 12 30.65227
 2018-Sep-28 01:16  m  04 48 58.372088 +30 12 31.01927
 2018-Sep-28 01:17  m  04 48 58.476061 +30 12 31.38634
 2018-Sep-28 01:18  m  04 48 58.580011 +30 12 31.75348
 2018-Sep-28 01:19  m  04 48 58.683938 +30 12 32.12070
 2018-Sep-28 01:20  m  04 48 58.787843 +30 12 32.48798
 2018-Sep-28 01:21  m  04 48 58.891724 +30 12 32.85534
 2018-Sep-28 01:22  m  04 48 58.995583 +30 12 33.22277
 2018-Sep-28 01:23  m  04 48 59.099418 +30 12 33.59027
 2018-Sep-28 01:24  m  04 48 59.203230 +30 12 33.95784
 2018-Sep-28 01:25  m  04 48 59.307020 +30 12 34.32548
 2018-Sep-28 01:26  m  04 48 59.410786 +30 12 34.69318
 2018-Sep-28 01:27  m  04 48 59.514528 +30 12 35.06096
 2018-Sep-28 01:28  m  04 48 59.618248 +30 12 35.42879
 2018-Sep-28 01:29  m  04 48 59.721944 +30 12 35.79670
 2018-Sep-28 01:30  m  04 48 59.825616 +30 12 36.16467
 2018-Sep-28 01:31  m  04 48 59.929265 +30 12 36.53270
 2018-Sep-28 01:32  m  04 49 00.032891 +30 12 36.90080
 2018-Sep-28 01:33  m  04 49 00.136493 +30 12 37.26896
 2018-Sep-28 01:34  m  04 49 00.240072 +30 12 37.63718
 2018-Sep-28 01:35  m  04 49 00.343627 +30 12 38.00547
 2018-Sep-28 01:36  m  04 49 00.447158 +30 12 38.37382
 2018-Sep-28 01:37  m  04 49 00.550665 +30 12 38.74222
 2018-Sep-28 01:38  m  04 49 00.654149 +30 12 39.11069
 2018-Sep-28 01:39  m  04 49 00.757609 +30 12 39.47922
 2018-Sep-28 01:40  m  04 49 00.861045 +30 12 39.84780
 2018-Sep-28 01:41  m  04 49 00.964458 +30 12 40.21644
 2018-Sep-28 01:42  m  04 49 01.067846 +30 12 40.58514
 2018-Sep-28 01:43  m  04 49 01.171210 +30 12 40.95390
 2018-Sep-28 01:44  m  04 49 01.274551 +30 12 41.32271
 2018-Sep-28 01:45  m  04 49 01.377867 +30 12 41.69158
 2018-Sep-28 01:46  m  04 49 01.481159 +30 12 42.06050
 2018-Sep-28 01:47  m  04 49 01.584427 +30 12 42.42947
 2018-Sep-28 01:48  m  04 49 01.687671 +30 12 42.79850
 2018-Sep-28 01:49  m  04 49 01.790891 +30 12 43.16758
 2018-Sep-28 01:50  m  04 49 01.894086 +30 12 43.53671
 2018-Sep-28 01:51  m  04 49 01.997258 +30 12 43.90590
 2018-Sep-28 01:52  m  04 49 02.100404 +30 12 44.27513
 2018-Sep-28 01:53  m  04 49 02.203527 +30 12 44.64441
 2018-Sep-28 01:54  m  04 49 02.306625 +30 12 45.01374
 2018-Sep-28 01:55  m  04 49 02.409699 +30 12 45.38312
 2018-Sep-28 01:56  m  04 49 02.512748 +30 12 45.75255
 2018-Sep-28 01:57  m  04 49 02.615773 +30 12 46.12203
 2018-Sep-28 01:58  m  04 49 02.718773 +30 12 46.49155
 2018-Sep-28 01:59  m  04 49 02.821749 +30 12 46.86111
 2018-Sep-28 02:00  m  04 49 02.924700 +30 12 47.23072
 2018-Sep-28 02:01  m  04 49 03.027627 +30 12 47.60038
 2018-Sep-28 02:02  m  04 49 03.130528 +30 12 47.97007
 2018-Sep-28 02:03  m  04 49 03.233405 +30 12 48.33982
 2018-Sep-28 02:04  m  04 49 03.336258 +30 12 48.70960
 2018-Sep-28 02:05  m  04 49 03.439086 +30 12 49.07942
 2018-Sep-28 02:06  m  04 49 03.541888 +30 12 49.44929
 2018-Sep-28 02:07  m  04 49 03.644667 +30 12 49.81919
 2018-Sep-28 02:08  m  04 49 03.747420 +30 12 50.18913
 2018-Sep-28 02:09  m  04 49 03.850148 +30 12 50.55911
 2018-Sep-28 02:10  m  04 49 03.952852 +30 12 50.92913
 2018-Sep-28 02:11  m  04 49 04.055530 +30 12 51.29919
 2018-Sep-28 02:12  m  04 49 04.158184 +30 12 51.66928
 2018-Sep-28 02:13  m  04 49 04.260812 +30 12 52.03941
 2018-Sep-28 02:14  m  04 49 04.363416 +30 12 52.40957
 2018-Sep-28 02:15  m  04 49 04.465995 +30 12 52.77977
 2018-Sep-28 02:16  m  04 49 04.568548 +30 12 53.15000
 2018-Sep-28 02:17  m  04 49 04.671076 +30 12 53.52027
 2018-Sep-28 02:18  m  04 49 04.773580 +30 12 53.89056
 2018-Sep-28 02:19  m  04 49 04.876058 +30 12 54.26089
 2018-Sep-28 02:20  m  04 49 04.978511 +30 12 54.63125
 2018-Sep-28 02:21  m  04 49 05.080939 +30 12 55.00163
 2018-Sep-28 02:22  m  04 49 05.183342 +30 12 55.37205
 2018-Sep-28 02:23  m  04 49 05.285719 +30 12 55.74249
 2018-Sep-28 02:24  m  04 49 05.388071 +30 12 56.11297
 2018-Sep-28 02:25  m  04 49 05.490398 +30 12 56.48347
 2018-Sep-28 02:26  m  04 49 05.592700 +30 12 56.85399
 2018-Sep-28 02:27  m  04 49 05.694976 +30 12 57.22455
 2018-Sep-28 02:28  m  04 49 05.797227 +30 12 57.59512
 2018-Sep-28 02:29  m  04 49 05.899453 +30 12 57.96572
 2018-Sep-28 02:30  m  04 49 06.001653 +30 12 58.33635
 2018-Sep-28 02:31  m  04 49 06.103828 +30 12 58.70699
 2018-Sep-28 02:32  m  04 49 06.205977 +30 12 59.07766
 2018-Sep-28 02:33  m  04 49 06.308102 +30 12 59.44835
 2018-Sep-28 02:34  m  04 49 06.410200 +30 12 59.81906
 2018-Sep-28 02:35  m  04 49 06.512273 +30 13 00.18979
 2018-Sep-28 02:36  m  04 49 06.614321 +30 13 00.56054
 2018-Sep-28 02:37  m  04 49 06.716343 +30 13 00.93131
 2018-Sep-28 02:38  m  04 49 06.818340 +30 13 01.30210
 2018-Sep-28 02:39  m  04 49 06.920311 +30 13 01.67290
 2018-Sep-28 02:40  m  04 49 07.022257 +30 13 02.04372
 2018-Sep-28 02:41  m  04 49 07.124177 +30 13 02.41456
 2018-Sep-28 02:42  m  04 49 07.226072 +30 13 02.78540
 2018-Sep-28 02:43  m  04 49 07.327941 +30 13 03.15627
 2018-Sep-28 02:44  m  04 49 07.429784 +30 13 03.52714
 2018-Sep-28 02:45  m  04 49 07.531602 +30 13 03.89803
 2018-Sep-28 02:46  m  04 49 07.633395 +30 13 04.26893
 2018-Sep-28 02:47  m  04 49 07.735161 +30 13 04.63985
 2018-Sep-28 02:48  m  04 49 07.836902 +30 13 05.01077
 2018-Sep-28 02:49  m  04 49 07.938618 +30 13 05.38170
 2018-Sep-28 02:50  m  04 49 08.040308 +30 13 05.75264
 2018-Sep-28 02:51  m  04 49 08.141972 +30 13 06.12359
 2018-Sep-28 02:52  m  04 49 08.243610 +30 13 06.49455
 2018-Sep-28 02:53  m  04 49 08.345223 +30 13 06.86551
 2018-Sep-28 02:54  m  04 49 08.446810 +30 13 07.23648
 2018-Sep-28 02:55  m  04 49 08.548371 +30 13 07.60746
